[
    {
        "Altitude(m)": 570115.1616998668,
        "Argument of Periapsis(deg)": 0.006622991110713501,
        "Eccentricity": 0.0,
        "Inclination(deg)": 53.0,
        "Latitude(deg)": -48.76474998310485,
        "Longitude(deg)": 30.465739717954143,
        "Mean Anomaly(deg)": -69.90840713242241,
        "RAAN(deg)": 189.99014336852804,
        "Satellite Name": "Starlink Shell 1 853",
        "Satellite Number": 853,
        "Semi-Major Axis(m)": 6931778.249405717,
        "Time(s)": 190
    },
    {
        "Altitude(m)": 570009.5975873574,
        "Argument of Periapsis(deg)": 0.0069715695902247375,
        "Eccentricity": 0.0,
        "Inclination(deg)": 53.0,
        "Latitude(deg)": -48.50250798107701,
        "Longitude(deg)": 31.280609921789114,
        "Mean Anomaly(deg)": -69.28157592886573,
        "RAAN(deg)": 189.98962459845052,
        "Satellite Name": "Starlink Shell 1 853",
        "Satellite Number": 853,
        "Semi-Major Axis(m)": 6931778.249405717,
        "Time(s)": 200
    },
    {
        "Altitude(m)": 569901.2819928264,
        "Argument of Periapsis(deg)": 0.007320148069735974,
        "Eccentricity": 0.0,
        "Inclination(deg)": 53.0,
        "Latitude(deg)": -48.23395030887809,
        "Longitude(deg)": 32.08660637018689,
        "Mean Anomaly(deg)": -68.65474472530899,
        "RAAN(deg)": 189.98910582837308,
        "Satellite Name": "Starlink Shell 1 853",
        "Satellite Number": 853,
        "Semi-Major Axis(m)": 6931778.249405717,
        "Time(s)": 210
    },
    {
        "Altitude(m)": 569790.2578438303,
        "Argument of Periapsis(deg)": 0.007668726549247212,
        "Eccentricity": 0.0,
        "Inclination(deg)": 53.0,
        "Latitude(deg)": -47.95919990893759,
        "Longitude(deg)": 32.883699510386265,
        "Mean Anomaly(deg)": -68.02791352175223,
        "RAAN(deg)": 189.98858705829562,
        "Satellite Name": "Starlink Shell 1 853",
        "Satellite Number": 853,
        "Semi-Major Axis(m)": 6931778.249405717,
        "Time(s)": 220
    },
    {
        "Altitude(m)": 569676.5691220635,
        "Argument of Periapsis(deg)": 0.00801730502875845,
        "Eccentricity": 0.0,
        "Inclination(deg)": 53.0,
        "Latitude(deg)": -47.67837937316397,
        "Longitude(deg)": 33.67187147814943,
        "Mean Anomaly(deg)": -67.40108231819555,
        "RAAN(deg)": 189.98806828821813,
        "Satellite Name": "Starlink Shell 1 853",
        "Satellite Number": 853,
        "Semi-Major Axis(m)": 6931778.249405717,
        "Time(s)": 230
    },
    {
        "Altitude(m)": 569560.2608441524,
        "Argument of Periapsis(deg)": 0.008365883508269684,
        "Eccentricity": 0.0,
        "Inclination(deg)": 53.0,
        "Latitude(deg)": -47.391610780498894,
        "Longitude(deg)": 34.451116061678114,
        "Mean Anomaly(deg)": -66.7742511146388,
        "RAAN(deg)": 189.98754951814067,
        "Satellite Name": "Starlink Shell 1 853",
        "Satellite Number": 853,
        "Semi-Major Axis(m)": 6931778.249405717,
        "Time(s)": 240
    },
    {
        "Altitude(m)": 569441.3790419789,
        "Argument of Periapsis(deg)": 0.008714461987780921,
        "Eccentricity": 0.0,
        "Inclination(deg)": 53.0,
        "Latitude(deg)": -47.09901554543413,
        "Longitude(deg)": 35.22143714678328,
        "Mean Anomaly(deg)": -66.14741991108205,
        "RAAN(deg)": 189.9870307480632,
        "Satellite Name": "Starlink Shell 1 853",
        "Satellite Number": 853,
        "Semi-Major Axis(m)": 6931778.249405717,
        "Time(s)": 250
    },
    {
        "Altitude(m)": 569319.9707425599,
        "Argument of Periapsis(deg)": 0.009063040467292158,
        "Eccentricity": 0.0,
        "Inclination(deg)": 53.0,
        "Latitude(deg)": -46.800714277370794,
        "Longitude(deg)": 35.98284867246795,
        "Mean Anomaly(deg)": -65.52058870752539,
        "RAAN(deg)": 189.9865119779857,
        "Satellite Name": "Starlink Shell 1 853",
        "Satellite Number": 853,
        "Semi-Major Axis(m)": 6931778.249405717,
        "Time(s)": 260
    },
    {
        "Altitude(m)": 569196.0839474789,
        "Argument of Periapsis(deg)": 0.009411618946803396,
        "Eccentricity": 0.0,
        "Inclination(deg)": 53.0,
        "Latitude(deg)": -46.49682665065225,
        "Longitude(deg)": 36.73537458717558,
        "Mean Anomaly(deg)": -64.89375750396871,
        "RAAN(deg)": 189.98599320790825,
        "Satellite Name": "Starlink Shell 1 853",
        "Satellite Number": 853,
        "Semi-Major Axis(m)": 6931778.249405717,
        "Time(s)": 270
    },
    {
        "Altitude(m)": 569069.7676118629,
        "Argument of Periapsis(deg)": 0.009760197426314633,
        "Eccentricity": 0.0,
        "Inclination(deg)": 53.0,
        "Latitude(deg)": -46.18747128504936,
        "Longitude(deg)": 37.479047295669474,
        "Mean Anomaly(deg)": -64.26692630041197,
        "RAAN(deg)": 189.98547443783076,
        "Satellite Name": "Starlink Shell 1 853",
        "Satellite Number": 853,
        "Semi-Major Axis(m)": 6931778.249405717,
        "Time(s)": 280
    },
    {
        "Altitude(m)": 568941.0716229549,
        "Argument of Periapsis(deg)": 0.01010877590582587,
        "Eccentricity": 0.0,
        "Inclination(deg)": 53.0,
        "Latitude(deg)": -45.87276563642623,
        "Longitude(deg)": 38.213907624838534,
        "Mean Anomaly(deg)": -63.640095096855205,
        "RAAN(deg)": 189.98495566775333,
        "Satellite Name": "Starlink Shell 1 853",
        "Satellite Number": 853,
        "Semi-Major Axis(m)": 6931778.249405717,
        "Time(s)": 290
    },
    {
        "Altitude(m)": 568810.046778246,
        "Argument of Periapsis(deg)": 0.010457354385337106,
        "Eccentricity": 0.0,
        "Inclination(deg)": 53.0,
        "Latitude(deg)": -45.55282589728363,
        "Longitude(deg)": 38.940004797828585,
        "Mean Anomaly(deg)": -63.01326389329856,
        "RAAN(deg)": 189.9844368976758,
        "Satellite Name": "Starlink Shell 1 853",
        "Satellite Number": 853,
        "Semi-Major Axis(m)": 6931778.249405717,
        "Time(s)": 300
    },
    {
        "Altitude(m)": 568676.744763189,
        "Argument of Periapsis(deg)": 0.010805932864848343,
        "Eccentricity": 0.0,
        "Inclination(deg)": 53.0,
        "Latitude(deg)": -45.22776690684587,
        "Longitude(deg)": 39.6573949056264,
        "Mean Anomaly(deg)": -62.38643268974191,
        "RAAN(deg)": 189.98391812759837,
        "Satellite Name": "Starlink Shell 1 853",
        "Satellite Number": 853,
        "Semi-Major Axis(m)": 6931778.249405717,
        "Time(s)": 310
    },
    {
        "Altitude(m)": 568541.2181285408,
        "Argument of Periapsis(deg)": 0.01115451134435958,
        "Eccentricity": 0.0,
        "Inclination(deg)": 53.0,
        "Latitude(deg)": -44.89770207032455,
        "Longitude(deg)": 40.366140903576024,
        "Mean Anomaly(deg)": -61.75960148618511,
        "RAAN(deg)": 189.98339935752085,
        "Satellite Name": "Starlink Shell 1 853",
        "Satellite Number": 853,
        "Semi-Major Axis(m)": 6931778.249405717,
        "Time(s)": 320
    },
    {
        "Altitude(m)": 568403.5202672726,
        "Argument of Periapsis(deg)": 0.011503089823870818,
        "Eccentricity": 0.0,
        "Inclination(deg)": 53.0,
        "Latitude(deg)": -44.56274328697965,
        "Longitude(deg)": 41.06631262144538,
        "Mean Anomaly(deg)": -61.13277028262836,
        "RAAN(deg)": 189.98288058744342,
        "Satellite Name": "Starlink Shell 1 853",
        "Satellite Number": 853,
        "Semi-Major Axis(m)": 6931778.249405717,
        "Time(s)": 330
    },
    {
        "Altitude(m)": 568263.7053911224,
        "Argument of Periapsis(deg)": 0.011851668303382053,
        "Eccentricity": 0.0,
        "Inclination(deg)": 53.0,
        "Latitude(deg)": -44.223000886582064,
        "Longitude(deg)": 41.757985275425675,
        "Mean Anomaly(deg)": -60.50593907907172,
        "RAAN(deg)": 189.98236181736596,
        "Satellite Name": "Starlink Shell 1 853",
        "Satellite Number": 853,
        "Semi-Major Axis(m)": 6931778.249405717,
        "Time(s)": 340
    },
    {
        "Altitude(m)": 568121.8285067505,
        "Argument of Periapsis(deg)": 0.012200246782893292,
        "Eccentricity": 0.0,
        "Inclination(deg)": 53.0,
        "Latitude(deg)": -43.878583573865946,
        "Longitude(deg)": 42.44123950883921,
        "Mean Anomaly(deg)": -59.879107875515054,
        "RAAN(deg)": 189.98184304728846,
        "Satellite Name": "Starlink Shell 1 853",
        "Satellite Number": 853,
        "Semi-Major Axis(m)": 6931778.249405717,
        "Time(s)": 350
    },
    {
        "Altitude(m)": 567977.9453915551,
        "Argument of Periapsis(deg)": 0.012548825262404526,
        "Eccentricity": 0.0,
        "Inclination(deg)": 53.0,
        "Latitude(deg)": -43.529598380558994,
        "Longitude(deg)": 43.11616144951204,
        "Mean Anomaly(deg)": -59.252276671958306,
        "RAAN(deg)": 189.981324277211,
        "Satellite Name": "Starlink Shell 1 853",
        "Satellite Number": 853,
        "Semi-Major Axis(m)": 6931778.249405717,
        "Time(s)": 360
    },
    {
        "Altitude(m)": 567832.112569122,
        "Argument of Periapsis(deg)": 0.012897403741915765,
        "Eccentricity": 0.0,
        "Inclination(deg)": 53.0,
        "Latitude(deg)": -43.17615062457585,
        "Longitude(deg)": 43.78284127158028,
        "Mean Anomaly(deg)": -58.62544546840153,
        "RAAN(deg)": 189.98080550713354,
        "Satellite Name": "Starlink Shell 1 853",
        "Satellite Number": 853,
        "Semi-Major Axis(m)": 6931778.249405717,
        "Time(s)": 370
    }
]